ONEWEB-0235             
1 48771U 21045E   24278.34839973  .00000186  00000+0  45942-3 0  9999
2 48771  87.9119  22.7497 0002377 113.5096 246.6284 13.15548199162758
ONEWEB-0242             
1 48772U 21045F   24278.57022194  .00000175  00000+0  42985-3 0  9996
2 48772  87.9120  22.6933 0001887 107.6475 252.4861 13.15550882162821
ONEWEB-0241             
1 48773U 21045G   24278.55755183 -.00000007  00000+0 -52672-4 0  9997
2 48773  87.9128  22.7527 0002232 100.0466 260.0916 13.15549778162730
ONEWEB-0243             
1 48774U 21045H   24278.58924296  .00000317  00000+0  80780-3 0  9996
2 48774  87.9130  22.7067 0002205 113.4478 246.6885 13.15549424162760
ONEWEB-0222             
1 48775U 21045J   24278.57259440  .00000163  00000+0  39929-3 0  9996
2 48775  87.9117  22.7018 0002076 102.4349 257.7014 13.15551200162800
ONEWEB-0244             
1 48776U 21045K   24278.52268649  .00000322  00000+0  82082-3 0  9998
2 48776  87.9117  22.6929 0001803 107.5918 252.5409 13.15550708163361
ONEWEB-0247             
1 48777U 21045L   24278.59557561  .00000324  00000+0  82561-3 0  9994
2 48777  87.9125  22.7277 0002589 120.6998 239.4387 13.15552731162810
ONEWEB-0245             
1 48778U 21045M   24278.59082729  .00000326  00000+0  83255-3 0  9997
2 48778  87.9119  22.7114 0002027  97.9222 262.2138 13.15550330162784
